STARLINK-30533          
1 58037U 23156K   26068.56779664  .00020354  00000+0  69771-3 0  9998
2 58037  53.1581 168.7677 0001151  90.5230 269.5902 15.30188896135019
COSMOS 2588             
1 64095U 25109A   26068.81179522  .00009169  00000+0  32611-3 0  9998
2 64095  72.9704  73.5401 0005019 308.6780  51.3966 15.29122656 44425
